STARLINK-4212           
1 52846U 22062S   25210.03258097  .00000008  00000+0  18573-4 0  9996
2 52846  53.2188 318.1693 0001064  86.9687 273.1427 15.08841458172516
STARLINK-4206           
1 52847U 22062T   25210.55047958  .00003073  00000+0  21097-3 0  9995
2 52847  53.2190 315.8326 0001311  95.8935 264.2206 15.08864904172592
STARLINK-4202           
1 52848U 22062U   25210.56889884  .00001414  00000+0  10695-3 0  9998
2 52848  53.2181 315.7522 0001166  85.8736 274.2389 15.08833839172592
STARLINK-4197           
1 52849U 22062V   25210.54406155  .00000330  00000+0  38839-4 0  9990
2 52849  53.2168 305.8630 0001141  86.4614 273.6508 15.08842218172725
STARLINK-4187           
1 52850U 22062W   25209.59470863 -.00000106  00000+0  11420-4 0  9991
2 52850  53.2200 320.4812 0001208  93.4289 266.6841 15.08831904171955
STARLINK-3809           
1 52851U 22062X   25210.54040951 -.00002363  00000+0 -13050-3 0  9998
2 52851  53.2170 305.8787 0000794  80.1397 279.9685 15.08817331172729
STARLINK-4184           
1 52852U 22062Y   25210.54774364  .00000443  00000+0  45918-4 0  9995
2 52852  53.2182 305.8470 0001180  83.9701 276.1425 15.08840060172728
STARLINK-4189           
1 52853U 22062Z   25210.00037830 -.00000158  00000+0  81566-5 0  9991
2 52853  53.2186 308.2743 0001208  88.0787 272.0344 15.08840559172643
STARLINK-4204           
1 52854U 22062AA  25210.53669926  .00000323  00000+0  38403-4 0  9991
2 52854  53.2179 305.8957 0001269  88.3251 271.7887 15.08845350172723
STARLINK-4209           
1 52855U 22062AB  25209.59830663 -.00000003  00000+0  17884-4 0  9990
2 52855  53.2178 310.1069 0000906  88.3264 271.7832 15.08840309172580
STARLINK-4201           
1 52856U 22062AC  25210.00406676  .00000312  00000+0  37684-4 0  9994
2 52856  53.2180 308.3354 0001163  81.6327 278.4797 15.08842217172643
STARLINK-4199           
1 52857U 22062AD  25210.25334510  .00000585  00000+0  54841-4 0  9995
2 52857  53.2173 307.1658 0001077  89.4897 270.6219 15.08838214172681
STARLINK-4198           
1 52858U 22062AE  25209.99942461 -.00000215  00000+0  45918-5 0  9992
2 52858  53.2181 308.3355 0001025  84.0209 276.0900 15.08845708172648
STARLINK-4196           
1 52859U 22062AF  25209.58726974  .00000208  00000+0  31176-4 0  9998
2 52859  53.2180 310.1552 0001072  87.0102 273.1013 15.08835141172097
STARLINK-4191           
1 52860U 22062AG  25210.52198353  .00001171  00000+0  91652-4 0  9995
2 52860  53.2186 305.9609 0001267  86.1293 273.9844 15.08842240172725
STARLINK-4112           
1 52861U 22062AH  25210.56341996  .00000090  00000+0  23756-4 0  9992
2 52861  53.2181 305.7851 0001100  85.7544 274.3574 15.08841524172738
STARLINK-4010           
1 52862U 22062AJ  25209.51734992 -.00000074  00000+0  13442-4 0  9992
2 52862  53.2193 310.4723 0001247  98.8218 261.2915 15.08833309172082
