[{"OBJECT_NAME":"STARLINK-4212","OBJECT_ID":"2022-062S","EPOCH":"2025-07-29T00:46:54.995808","MEAN_MOTION":15.08841458,"ECCENTRICITY":0.0001064,"INCLINATION":53.2188,"RA_OF_ASC_NODE":318.1693,"ARG_OF_PERICENTER":86.9687,"MEAN_ANOMALY":273.1427,"EPHEMERIS_TYPE":0,"CLASSIFICATION_TYPE":"U","NORAD_CAT_ID":52846,"ELEMENT_SET_NO":999,"REV_AT_EPOCH":17251,"BSTAR":1.8573e-5,"MEAN_MOTION_DOT":8.0e-8,"MEAN_MOTION_DDOT":0},{"OBJECT_NAME":"STARLINK-4206","OBJECT_ID":"2022-062T","EPOCH":"2025-07-29T13:12:41.435712","MEAN_MOTION":15.08864904,"ECCENTRICITY":0.0001311,"INCLINATION":53.219,"RA_OF_ASC_NODE":315.8326,"ARG_OF_PERICENTER":95.8935,"MEAN_ANOMALY":264.2206,"EPHEMERIS_TYPE":0,"CLASSIFICATION_TYPE":"U","NORAD_CAT_ID":52847,"ELEMENT_SET_NO":999,"REV_AT_EPOCH":17259,"BSTAR":0.00021097,"MEAN_MOTION_DOT":3.073e-5,"MEAN_MOTION_DDOT":0},{"OBJECT_NAME":"STARLINK-4202","OBJECT_ID":"2022-062U","EPOCH":"2025-07-29T13:39:12.859776","MEAN_MOTION":15.08833839,"ECCENTRICITY":0.0001166,"INCLINATION":53.2181,"RA_OF_ASC_NODE":315.7522,"ARG_OF_PERICENTER":85.8736,"MEAN_ANOMALY":274.2389,"EPHEMERIS_TYPE":0,"CLASSIFICATION_TYPE":"U","NORAD_CAT_ID":52848,"ELEMENT_SET_NO":999,"REV_AT_EPOCH":17259,"BSTAR":0.00010695,"MEAN_MOTION_DOT":1.414e-5,"MEAN_MOTION_DDOT":0},{"OBJECT_NAME":"STARLINK-4197","OBJECT_ID":"2022-062V","EPOCH":"2025-07-29T13:03:26.917920","MEAN_MOTION":15.08842218,"ECCENTRICITY":0.0001141,"INCLINATION":53.2168,"RA_OF_ASC_NODE":305.863,"ARG_OF_PERICENTER":86.4614,"MEAN_ANOMALY":273.6508,"EPHEMERIS_TYPE":0,"CLASSIFICATION_TYPE":"U","NORAD_CAT_ID":52849,"ELEMENT_SET_NO":999,"REV_AT_EPOCH":17272,"BSTAR":3.8839e-5,"MEAN_MOTION_DOT":3.3e-6,"MEAN_MOTION_DDOT":0},{"OBJECT_NAME":"STARLINK-4187","OBJECT_ID":"2022-062W","EPOCH":"2025-07-28T14:16:22.825632","MEAN_MOTION":15.08831904,"ECCENTRICITY":0.0001208,"INCLINATION":53.22,"RA_OF_ASC_NODE":320.4812,"ARG_OF_PERICENTER":93.4289,"MEAN_ANOMALY":266.6841,"EPHEMERIS_TYPE":0,"CLASSIFICATION_TYPE":"U","NORAD_CAT_ID":52850,"ELEMENT_SET_NO":999,"REV_AT_EPOCH":17195,"BSTAR":1.142e-5,"MEAN_MOTION_DOT":-1.06e-6,"MEAN_MOTION_DDOT":0},{"OBJECT_NAME":"STARLINK-3809","OBJECT_ID":"2022-062X","EPOCH":"2025-07-29T12:58:11.381664","MEAN_MOTION":15.08817331,"ECCENTRICITY":7.94e-5,"INCLINATION":53.217,"RA_OF_ASC_NODE":305.8787,"ARG_OF_PERICENTER":80.1397,"MEAN_ANOMALY":279.9685,"EPHEMERIS_TYPE":0,"CLASSIFICATION_TYPE":"U","NORAD_CAT_ID":52851,"ELEMENT_SET_NO":999,"REV_AT_EPOCH":17272,"BSTAR":-0.0001305,"MEAN_MOTION_DOT":-2.363e-5,"MEAN_MOTION_DDOT":0},{"OBJECT_NAME":"STARLINK-4184","OBJECT_ID":"2022-062Y","EPOCH":"2025-07-29T13:08:45.050496","MEAN_MOTION":15.0884006,"ECCENTRICITY":0.000118,"INCLINATION":53.2182,"RA_OF_ASC_NODE":305.847,"ARG_OF_PERICENTER":83.9701,"MEAN_ANOMALY":276.1425,"EPHEMERIS_TYPE":0,"CLASSIFICATION_TYPE":"U","NORAD_CAT_ID":52852,"ELEMENT_SET_NO":999,"REV_AT_EPOCH":17272,"BSTAR":4.5918e-5,"MEAN_MOTION_DOT":4.43e-6,"MEAN_MOTION_DDOT":0},{"OBJECT_NAME":"STARLINK-4189","OBJECT_ID":"2022-062Z","EPOCH":"2025-07-29T00:00:32.685120","MEAN_MOTION":15.08840559,"ECCENTRICITY":0.0001208,"INCLINATION":53.2186,"RA_OF_ASC_NODE":308.2743,"ARG_OF_PERICENTER":88.0787,"MEAN_ANOMALY":272.0344,"EPHEMERIS_TYPE":0,"CLASSIFICATION_TYPE":"U","NORAD_CAT_ID":52853,"ELEMENT_SET_NO":999,"REV_AT_EPOCH":17264,"BSTAR":8.1566e-6,"MEAN_MOTION_DOT":-1.58e-6,"MEAN_MOTION_DDOT":0},{"OBJECT_NAME":"STARLINK-4204","OBJECT_ID":"2022-062AA","EPOCH":"2025-07-29T12:52:50.816064","MEAN_MOTION":15.0884535,"ECCENTRICITY":0.0001269,"INCLINATION":53.2179,"RA_OF_ASC_NODE":305.8957,"ARG_OF_PERICENTER":88.3251,"MEAN_ANOMALY":271.7887,"EPHEMERIS_TYPE":0,"CLASSIFICATION_TYPE":"U","NORAD_CAT_ID":52854,"ELEMENT_SET_NO":999,"REV_AT_EPOCH":17272,"BSTAR":3.8403e-5,"MEAN_MOTION_DOT":3.23e-6,"MEAN_MOTION_DDOT":0},{"OBJECT_NAME":"STARLINK-4209","OBJECT_ID":"2022-062AB","EPOCH":"2025-07-28T14:21:33.692832","MEAN_MOTION":15.08840309,"ECCENTRICITY":9.06e-5,"INCLINATION":53.2178,"RA_OF_ASC_NODE":310.1069,"ARG_OF_PERICENTER":88.3264,"MEAN_ANOMALY":271.7832,"EPHEMERIS_TYPE":0,"CLASSIFICATION_TYPE":"U","NORAD_CAT_ID":52855,"ELEMENT_SET_NO":999,"REV_AT_EPOCH":17258,"BSTAR":1.7884e-5,"MEAN_MOTION_DOT":-3.0e-8,"MEAN_MOTION_DDOT":0},{"OBJECT_NAME":"STARLINK-4201","OBJECT_ID":"2022-062AC","EPOCH":"2025-07-29T00:05:51.368064","MEAN_MOTION":15.08842217,"ECCENTRICITY":0.0001163,"INCLINATION":53.218,"RA_OF_ASC_NODE":308.3354,"ARG_OF_PERICENTER":81.6327,"MEAN_ANOMALY":278.4797,"EPHEMERIS_TYPE":0,"CLASSIFICATION_TYPE":"U","NORAD_CAT_ID":52856,"ELEMENT_SET_NO":999,"REV_AT_EPOCH":17264,"BSTAR":3.7684e-5,"MEAN_MOTION_DOT":3.12e-6,"MEAN_MOTION_DDOT":0},{"OBJECT_NAME":"STARLINK-4199","OBJECT_ID":"2022-062AD","EPOCH":"2025-07-29T06:04:49.016640","MEAN_MOTION":15.08838214,"ECCENTRICITY":0.0001077,"INCLINATION":53.2173,"RA_OF_ASC_NODE":307.1658,"ARG_OF_PERICENTER":89.4897,"MEAN_ANOMALY":270.6219,"EPHEMERIS_TYPE":0,"CLASSIFICATION_TYPE":"U","NORAD_CAT_ID":52857,"ELEMENT_SET_NO":999,"REV_AT_EPOCH":17268,"BSTAR":5.4841e-5,"MEAN_MOTION_DOT":5.85e-6,"MEAN_MOTION_DDOT":0},{"OBJECT_NAME":"STARLINK-4198","OBJECT_ID":"2022-062AE","EPOCH":"2025-07-28T23:59:10.286304","MEAN_MOTION":15.08845708,"ECCENTRICITY":0.0001025,"INCLINATION":53.2181,"RA_OF_ASC_NODE":308.3355,"ARG_OF_PERICENTER":84.0209,"MEAN_ANOMALY":276.09,"EPHEMERIS_TYPE":0,"CLASSIFICATION_TYPE":"U","NORAD_CAT_ID":52858,"ELEMENT_SET_NO":999,"REV_AT_EPOCH":17264,"BSTAR":4.5918e-6,"MEAN_MOTION_DOT":-2.15e-6,"MEAN_MOTION_DDOT":0},{"OBJECT_NAME":"STARLINK-4196","OBJECT_ID":"2022-062AF","EPOCH":"2025-07-28T14:05:40.105536","MEAN_MOTION":15.08835141,"ECCENTRICITY":0.0001072,"INCLINATION":53.218,"RA_OF_ASC_NODE":310.1552,"ARG_OF_PERICENTER":87.0102,"MEAN_ANOMALY":273.1013,"EPHEMERIS_TYPE":0,"CLASSIFICATION_TYPE":"U","NORAD_CAT_ID":52859,"ELEMENT_SET_NO":999,"REV_AT_EPOCH":17209,"BSTAR":3.1176e-5,"MEAN_MOTION_DOT":2.08e-6,"MEAN_MOTION_DDOT":0},{"OBJECT_NAME":"STARLINK-4191","OBJECT_ID":"2022-062AG","EPOCH":"2025-07-29T12:31:39.376992","MEAN_MOTION":15.0884224,"ECCENTRICITY":0.0001267,"INCLINATION":53.2186,"RA_OF_ASC_NODE":305.9609,"ARG_OF_PERICENTER":86.1293,"MEAN_ANOMALY":273.9844,"EPHEMERIS_TYPE":0,"CLASSIFICATION_TYPE":"U","NORAD_CAT_ID":52860,"ELEMENT_SET_NO":999,"REV_AT_EPOCH":17272,"BSTAR":9.1652e-5,"MEAN_MOTION_DOT":1.171e-5,"MEAN_MOTION_DDOT":0},{"OBJECT_NAME":"STARLINK-4112","OBJECT_ID":"2022-062AH","EPOCH":"2025-07-29T13:31:19.484544","MEAN_MOTION":15.08841524,"ECCENTRICITY":0.00011,"INCLINATION":53.2181,"RA_OF_ASC_NODE":305.7851,"ARG_OF_PERICENTER":85.7544,"MEAN_ANOMALY":274.3574,"EPHEMERIS_TYPE":0,"CLASSIFICATION_TYPE":"U","NORAD_CAT_ID":52861,"ELEMENT_SET_NO":999,"REV_AT_EPOCH":17273,"BSTAR":2.3756e-5,"MEAN_MOTION_DOT":9.0e-7,"MEAN_MOTION_DDOT":0},{"OBJECT_NAME":"STARLINK-4010","OBJECT_ID":"2022-062AJ","EPOCH":"2025-07-28T12:24:59.033088","MEAN_MOTION":15.08833309,"ECCENTRICITY":0.0001247,"INCLINATION":53.2193,"RA_OF_ASC_NODE":310.4723,"ARG_OF_PERICENTER":98.8218,"MEAN_ANOMALY":261.2915,"EPHEMERIS_TYPE":0,"CLASSIFICATION_TYPE":"U","NORAD_CAT_ID":52862,"ELEMENT_SET_NO":999,"REV_AT_EPOCH":17208,"BSTAR":1.3442e-5,"MEAN_MOTION_DOT":-7.4e-7,"MEAN_MOTION_DDOT":0}]
